[{"OBJECT_NAME":"STARLINK-31496","OBJECT_ID":"2024-046L","EPOCH":"2026-03-09T11:08:54.039840","MEAN_MOTION":15.30184886,"ECCENTRICITY":0.00011813,"INCLINATION":53.1612,"RA_OF_ASC_NODE":143.7061,"ARG_OF_PERICENTER":111.8504,"MEAN_ANOMALY":248.2622,"EPHEMERIS_TYPE":0,"CLASSIFICATION_TYPE":"U","NORAD_CAT_ID":59211,"ELEMENT_SET_NO":999,"REV_AT_EPOCH":11318,"BSTAR":6.960071e-6,"MEAN_MOTION_DOT":-1.53e-6,"MEAN_MOTION_DDOT":0},{"OBJECT_NAME":"TRANSPORTER-1 OBJECT M","OBJECT_ID":"2021-006M","EPOCH":"2026-03-09T22:05:37.843296","MEAN_MOTION":15.3227845,"ECCENTRICITY":0.00102759,"INCLINATION":97.2377,"RA_OF_ASC_NODE":116.7915,"ARG_OF_PERICENTER":187.5492,"MEAN_ANOMALY":172.5597,"EPHEMERIS_TYPE":0,"CLASSIFICATION_TYPE":"U","NORAD_CAT_ID":47424,"ELEMENT_SET_NO":999,"REV_AT_EPOCH":28439,"BSTAR":0.00023985652,"MEAN_MOTION_DOT":7.411e-5,"MEAN_MOTION_DDOT":0}]
